COSMOS 1933             
1 18958U 88020A   26036.68453659  .00006827  00000+0  33720-3 0  9992
2 18958  82.5123 282.5762 0003363 334.2146  25.8920 15.17708261 45377
SL-3 R/B                
1 19046U 88032B   26036.66629251  .00009339  00000+0  43928-3 0  9997
2 19046  97.5150  20.0532 0025844 350.2322   9.8407 15.19489617 47247
SL-16 R/B               
1 19120U 88039B   26036.70836329 -.00000031  00000+0  80734-5 0  9997
2 19120  71.0150 136.1744 0020805  23.3344 336.8721 14.19611703953841
COSMOS 1953             
1 19210U 88050A   26036.67202571  .00015129  00000+0  55382-3 0  9994
2 19210  82.5090 190.4258 0010531 234.4144 125.6114 15.27866705 32899
SL-8 R/B                
1 19257U 88053B   26036.68291262  .00000379  00000+0  13139-3 0  9999
2 19257  74.0476 171.4565 0020262 356.8753 105.9673 14.38896457971993
COSMOS 1975             
1 19573U 88093A   26036.56614154  .00013079  00000+0  48414-3 0  9995
2 19573  82.5227 149.9076 0010397 284.8021  75.2066 15.27497111 14508
SL-14 R/B               
1 19574U 88093B   26036.61289868  .00000633  00000+0  70026-4 0  9999
2 19574  82.5282  72.1644 0021700 140.9919 336.8909 14.85621203996275
SL-16 R/B               
1 19650U 88102B   26036.69535378  .00000043  00000+0  45715-4 0  9995
2 19650  70.9969 218.8122 0012280  54.4715 305.7551 14.16146183922369
INTERCOSMOS 24          
1 20261U 89080A   26036.63434356  .00000748  00000+0  21647-3 0  9998
2 20261  82.6071 125.2672 1188227   7.2524 354.4162 12.59514776662760
SL-14 R/B               
1 20262U 89080C   26036.70886986  .00000517  00000+0  15720-3 0  9996
2 20262  82.5940 193.7171 1229429 257.8872  88.2150 12.50455947656158
DELTA 1 R/B             
1 20323U 89089B   26036.61555204  .00000594  00000+0  15590-3 0  9999
2 20323  97.0727 249.1506 0068028 223.2280 136.3567 14.50636099891084
ARIANE 40 R/B           
1 20443U 90005H   26036.63892187  .00000419  00000+0  14681-3 0  9994
2 20443  98.3152  98.2440 0009035 304.8051  55.2287 14.39848992888198
