CCSDS_OMM_VERS = 2.0
CREATION_DATE  = 
ORIGINATOR     = 

OBJECT_NAME    = COSMOS 1933
OBJECT_ID      = 1988-020A
CENTER_NAME    = EARTH
REF_FRAME      = TEME
TIME_SYSTEM    = UTC
MEAN_ELEMENT_THEORY = SGP/SGP4

EPOCH          = 2026-02-05T16:25:43.961376
MEAN_MOTION    = 15.17708261
ECCENTRICITY   = .00033635
INCLINATION    = 82.5123
RA_OF_ASC_NODE = 282.5762
ARG_OF_PERICENTER = 334.2146
MEAN_ANOMALY   = 25.8920

EPHEMERIS_TYPE = 0
CLASSIFICATION_TYPE = U
NORAD_CAT_ID   = 18958
ELEMENT_SET_NO = 999
REV_AT_EPOCH   = 4537
BSTAR          = .33719837E-3
MEAN_MOTION_DOT = .6827E-4
MEAN_MOTION_DDOT = 0

CCSDS_OMM_VERS = 2.0
CREATION_DATE  = 
ORIGINATOR     = 

OBJECT_NAME    = SL-3 R/B
OBJECT_ID      = 1988-032B
CENTER_NAME    = EARTH
REF_FRAME      = TEME
TIME_SYSTEM    = UTC
MEAN_ELEMENT_THEORY = SGP/SGP4

EPOCH          = 2026-02-05T15:59:27.672864
MEAN_MOTION    = 15.19489617
ECCENTRICITY   = .00258444
INCLINATION    = 97.5150
RA_OF_ASC_NODE = 20.0532
ARG_OF_PERICENTER = 350.2322
MEAN_ANOMALY   = 9.8407

EPHEMERIS_TYPE = 0
CLASSIFICATION_TYPE = U
NORAD_CAT_ID   = 19046
ELEMENT_SET_NO = 999
REV_AT_EPOCH   = 4724
BSTAR          = .43927504E-3
MEAN_MOTION_DOT = .9339E-4
MEAN_MOTION_DDOT = 0

CCSDS_OMM_VERS = 2.0
CREATION_DATE  = 
ORIGINATOR     = 

OBJECT_NAME    = SL-16 R/B
OBJECT_ID      = 1988-039B
CENTER_NAME    = EARTH
REF_FRAME      = TEME
TIME_SYSTEM    = UTC
MEAN_ELEMENT_THEORY = SGP/SGP4

EPOCH          = 2026-02-05T17:00:02.588256
MEAN_MOTION    = 14.19611703
ECCENTRICITY   = .00208058
INCLINATION    = 71.0150
RA_OF_ASC_NODE = 136.1744
ARG_OF_PERICENTER = 23.3344
MEAN_ANOMALY   = 336.8721

EPHEMERIS_TYPE = 0
CLASSIFICATION_TYPE = U
NORAD_CAT_ID   = 19120
ELEMENT_SET_NO = 999
REV_AT_EPOCH   = 95384
BSTAR          = .8073352E-5
MEAN_MOTION_DOT = -.31E-6
MEAN_MOTION_DDOT = 0

CCSDS_OMM_VERS = 2.0
CREATION_DATE  = 
ORIGINATOR     = 

OBJECT_NAME    = COSMOS 1953
OBJECT_ID      = 1988-050A
CENTER_NAME    = EARTH
REF_FRAME      = TEME
TIME_SYSTEM    = UTC
MEAN_ELEMENT_THEORY = SGP/SGP4

EPOCH          = 2026-02-05T16:07:43.021344
MEAN_MOTION    = 15.27866705
ECCENTRICITY   = .00105316
INCLINATION    = 82.5090
RA_OF_ASC_NODE = 190.4258
ARG_OF_PERICENTER = 234.4144
MEAN_ANOMALY   = 125.6114

EPHEMERIS_TYPE = 0
CLASSIFICATION_TYPE = U
NORAD_CAT_ID   = 19210
ELEMENT_SET_NO = 999
REV_AT_EPOCH   = 3289
BSTAR          = .55381624E-3
MEAN_MOTION_DOT = .15129E-3
MEAN_MOTION_DDOT = 0

CCSDS_OMM_VERS = 2.0
CREATION_DATE  = 
ORIGINATOR     = 

OBJECT_NAME    = SL-8 R/B
OBJECT_ID      = 1988-053B
CENTER_NAME    = EARTH
REF_FRAME      = TEME
TIME_SYSTEM    = UTC
MEAN_ELEMENT_THEORY = SGP/SGP4

EPOCH          = 2026-02-05T16:23:23.650368
MEAN_MOTION    = 14.38896457
ECCENTRICITY   = .00202628
INCLINATION    = 74.0476
RA_OF_ASC_NODE = 171.4565
ARG_OF_PERICENTER = 356.8753
MEAN_ANOMALY   = 105.9673

EPHEMERIS_TYPE = 0
CLASSIFICATION_TYPE = U
NORAD_CAT_ID   = 19257
ELEMENT_SET_NO = 999
REV_AT_EPOCH   = 97199
BSTAR          = .13139049E-3
MEAN_MOTION_DOT = .379E-5
MEAN_MOTION_DDOT = 0

CCSDS_OMM_VERS = 2.0
CREATION_DATE  = 
ORIGINATOR     = 

OBJECT_NAME    = COSMOS 1975
OBJECT_ID      = 1988-093A
CENTER_NAME    = EARTH
REF_FRAME      = TEME
TIME_SYSTEM    = UTC
MEAN_ELEMENT_THEORY = SGP/SGP4

EPOCH          = 2026-02-05T13:35:14.629056
MEAN_MOTION    = 15.27497111
ECCENTRICITY   = .00103974
INCLINATION    = 82.5227
RA_OF_ASC_NODE = 149.9076
ARG_OF_PERICENTER = 284.8021
MEAN_ANOMALY   = 75.2066

EPHEMERIS_TYPE = 0
CLASSIFICATION_TYPE = U
NORAD_CAT_ID   = 19573
ELEMENT_SET_NO = 999
REV_AT_EPOCH   = 1450
BSTAR          = .48413971E-3
MEAN_MOTION_DOT = .13079E-3
MEAN_MOTION_DDOT = 0

CCSDS_OMM_VERS = 2.0
CREATION_DATE  = 
ORIGINATOR     = 

OBJECT_NAME    = SL-14 R/B
OBJECT_ID      = 1988-093B
CENTER_NAME    = EARTH
REF_FRAME      = TEME
TIME_SYSTEM    = UTC
MEAN_ELEMENT_THEORY = SGP/SGP4

EPOCH          = 2026-02-05T14:42:34.445952
MEAN_MOTION    = 14.85621203
ECCENTRICITY   = .00217004
INCLINATION    = 82.5282
RA_OF_ASC_NODE = 72.1644
ARG_OF_PERICENTER = 140.9919
MEAN_ANOMALY   = 336.8909

EPHEMERIS_TYPE = 0
CLASSIFICATION_TYPE = U
NORAD_CAT_ID   = 19574
ELEMENT_SET_NO = 999
REV_AT_EPOCH   = 99627
BSTAR          = .70025727E-4
MEAN_MOTION_DOT = .633E-5
MEAN_MOTION_DDOT = 0

CCSDS_OMM_VERS = 2.0
CREATION_DATE  = 
ORIGINATOR     = 

OBJECT_NAME    = SL-16 R/B
OBJECT_ID      = 1988-102B
CENTER_NAME    = EARTH
REF_FRAME      = TEME
TIME_SYSTEM    = UTC
MEAN_ELEMENT_THEORY = SGP/SGP4

EPOCH          = 2026-02-05T16:41:18.566592
MEAN_MOTION    = 14.16146183
ECCENTRICITY   = .00122808
INCLINATION    = 70.9969
RA_OF_ASC_NODE = 218.8122
ARG_OF_PERICENTER = 54.4715
MEAN_ANOMALY   = 305.7551

EPHEMERIS_TYPE = 0
CLASSIFICATION_TYPE = U
NORAD_CAT_ID   = 19650
ELEMENT_SET_NO = 999
REV_AT_EPOCH   = 92236
BSTAR          = .4571547E-4
MEAN_MOTION_DOT = .43E-6
MEAN_MOTION_DDOT = 0

CCSDS_OMM_VERS = 2.0
CREATION_DATE  = 
ORIGINATOR     = 

OBJECT_NAME    = INTERCOSMOS 24
OBJECT_ID      = 1989-080A
CENTER_NAME    = EARTH
REF_FRAME      = TEME
TIME_SYSTEM    = UTC
MEAN_ELEMENT_THEORY = SGP/SGP4

EPOCH          = 2026-02-05T15:13:27.283584
MEAN_MOTION    = 12.59514776
ECCENTRICITY   = .11882271
INCLINATION    = 82.6071
RA_OF_ASC_NODE = 125.2672
ARG_OF_PERICENTER = 7.2524
MEAN_ANOMALY   = 354.4162

EPHEMERIS_TYPE = 0
CLASSIFICATION_TYPE = U
NORAD_CAT_ID   = 20261
ELEMENT_SET_NO = 999
REV_AT_EPOCH   = 66276
BSTAR          = .21647336E-3
MEAN_MOTION_DOT = .748E-5
MEAN_MOTION_DDOT = 0

CCSDS_OMM_VERS = 2.0
CREATION_DATE  = 
ORIGINATOR     = 

OBJECT_NAME    = SL-14 R/B
OBJECT_ID      = 1989-080C
CENTER_NAME    = EARTH
REF_FRAME      = TEME
TIME_SYSTEM    = UTC
MEAN_ELEMENT_THEORY = SGP/SGP4

EPOCH          = 2026-02-05T17:00:46.355904
MEAN_MOTION    = 12.50455947
ECCENTRICITY   = .12294292
INCLINATION    = 82.5940
RA_OF_ASC_NODE = 193.7171
ARG_OF_PERICENTER = 257.8872
MEAN_ANOMALY   = 88.2150

EPHEMERIS_TYPE = 0
CLASSIFICATION_TYPE = U
NORAD_CAT_ID   = 20262
ELEMENT_SET_NO = 999
REV_AT_EPOCH   = 65615
BSTAR          = .15719781E-3
MEAN_MOTION_DOT = .517E-5
MEAN_MOTION_DDOT = 0

CCSDS_OMM_VERS = 2.0
CREATION_DATE  = 
ORIGINATOR     = 

OBJECT_NAME    = DELTA 1 R/B
OBJECT_ID      = 1989-089B
CENTER_NAME    = EARTH
REF_FRAME      = TEME
TIME_SYSTEM    = UTC
MEAN_ELEMENT_THEORY = SGP/SGP4

EPOCH          = 2026-02-05T14:46:23.696256
MEAN_MOTION    = 14.50636099
ECCENTRICITY   = .00680288
INCLINATION    = 97.0727
RA_OF_ASC_NODE = 249.1506
ARG_OF_PERICENTER = 223.2280
MEAN_ANOMALY   = 136.3567

EPHEMERIS_TYPE = 0
CLASSIFICATION_TYPE = U
NORAD_CAT_ID   = 20323
ELEMENT_SET_NO = 999
REV_AT_EPOCH   = 89108
BSTAR          = .15590307E-3
MEAN_MOTION_DOT = .594E-5
MEAN_MOTION_DDOT = 0

CCSDS_OMM_VERS = 2.0
CREATION_DATE  = 
ORIGINATOR     = 

OBJECT_NAME    = ARIANE 40 R/B
OBJECT_ID      = 1990-005H
CENTER_NAME    = EARTH
REF_FRAME      = TEME
TIME_SYSTEM    = UTC
MEAN_ELEMENT_THEORY = SGP/SGP4

EPOCH          = 2026-02-05T15:20:02.849568
MEAN_MOTION    = 14.39848992
ECCENTRICITY   = .00090351
INCLINATION    = 98.3152
RA_OF_ASC_NODE = 98.2440
ARG_OF_PERICENTER = 304.8051
MEAN_ANOMALY   = 55.2287

EPHEMERIS_TYPE = 0
CLASSIFICATION_TYPE = U
NORAD_CAT_ID   = 20443
ELEMENT_SET_NO = 999
REV_AT_EPOCH   = 88819
BSTAR          = .1468131E-3
MEAN_MOTION_DOT = .419E-5
MEAN_MOTION_DDOT = 0

